[{"OBJECT_NAME":"STARLINK-31384","OBJECT_ID":"2024-031U","EPOCH":"2026-03-09T21:51:15.063264","MEAN_MOTION":15.30184012,"ECCENTRICITY":0.00011279,"INCLINATION":53.1604,"RA_OF_ASC_NODE":295.906,"ARG_OF_PERICENTER":82.7914,"MEAN_ANOMALY":277.3215,"EPHEMERIS_TYPE":0,"CLASSIFICATION_TYPE":"U","NORAD_CAT_ID":58983,"ELEMENT_SET_NO":999,"REV_AT_EPOCH":11654,"BSTAR":3.8704947e-5,"MEAN_MOTION_DOT":7.87e-6,"MEAN_MOTION_DDOT":0},{"OBJECT_NAME":"OBJECT D","OBJECT_ID":"2021-102D","EPOCH":"2026-03-09T14:47:14.426880","MEAN_MOTION":15.2846442,"ECCENTRICITY":0.0009157,"INCLINATION":97.3342,"RA_OF_ASC_NODE":112.2633,"ARG_OF_PERICENTER":187.6206,"MEAN_ANOMALY":172.4897,"EPHEMERIS_TYPE":0,"CLASSIFICATION_TYPE":"U","NORAD_CAT_ID":49398,"ELEMENT_SET_NO":999,"REV_AT_EPOCH":23880,"BSTAR":0.00046011,"MEAN_MOTION_DOT":0.00012697,"MEAN_MOTION_DDOT":0}]
